[{"OBJECT_NAME":"STARLINK-31913","OBJECT_ID":"2024-084P","EPOCH":"2026-03-09T06:51:18.903744","MEAN_MOTION":15.2758233,"ECCENTRICITY":0.00019261,"INCLINATION":43.0063,"RA_OF_ASC_NODE":40.4201,"ARG_OF_PERICENTER":269.9979,"MEAN_ANOMALY":90.0652,"EPHEMERIS_TYPE":0,"CLASSIFICATION_TYPE":"U","NORAD_CAT_ID":59667,"ELEMENT_SET_NO":999,"REV_AT_EPOCH":10435,"BSTAR":1.5055039e-5,"MEAN_MOTION_DOT":1.52e-6,"MEAN_MOTION_DDOT":0},{"OBJECT_NAME":"HERMES-2","OBJECT_ID":"2025-052AK","EPOCH":"2026-03-09T22:17:00.130272","MEAN_MOTION":15.28021069,"ECCENTRICITY":0.00063399,"INCLINATION":97.4004,"RA_OF_ASC_NODE":324.4926,"ARG_OF_PERICENTER":99.416,"MEAN_ANOMALY":260.7796,"EPHEMERIS_TYPE":0,"CLASSIFICATION_TYPE":"U","NORAD_CAT_ID":63243,"ELEMENT_SET_NO":999,"REV_AT_EPOCH":5485,"BSTAR":0.00034839454,"MEAN_MOTION_DOT":9.456e-5,"MEAN_MOTION_DDOT":0}]
